NORAD_CAT_ID,OBJECT_NAME,OBJECT_TYPE,EPOCH,MEAN_MOTION,ECCENTRICITY,INCLINATION,RA_OF_ASC_NODE,ARG_OF_PERICENTER,MEAN_ANOMALY,BSTAR,MEAN_MOTION_DOT,MEAN_MOTION_DDOT,TLE_LINE0,TLE_LINE1,TLE_LINE2,SEMIMAJOR_AXIS,PERIOD,APOGEE,PERIGEE,DECAYED
54205.0,STARLINK-5249,PAYLOAD,2024-07-28 21:17:04,15.08882627,0.0001051,53.2159,117.0082,68.635,291.4754,-0.00083534,-0.00013573,0.0,0 STARLINK-5249,1 54205U 22141BA  24210.88685289 -.00013573  00000-0 -83534-3 0  9996,2 54205  53.2159 117.0082 0001051  68.6350 291.4754 15.08882627 97349,6917.75,95.435,540.342,538.888,0.0
54205.0,STARLINK-5249,PAYLOAD,2024-07-28 22:52:28,15.08849035,0.0001472,53.2165,116.7128,82.291,277.8249,-0.00030043,-5.067e-05,0.0,0 STARLINK-5249,1 54205U 22141BA  24210.95310626 -.00005067  00000-0 -30043-3 0  9990,2 54205  53.2165 116.7128 0001472  82.2910 277.8249 15.08849035 97123,6917.853,95.437,540.736,538.699,0.0
54205.0,STARLINK-5249,PAYLOAD,2024-07-29 00:27:48,15.08906064,0.0001146,53.2174,116.4118,72.3019,287.8099,-0.0010802,-0.00017469,0.0,0 STARLINK-5249,1 54205U 22141BA  24211.01931559 -.00017469  00000-0 -10802-2 0  9991,2 54205  53.2174 116.4118 0001146  72.3019 287.8099 15.08906064 97363,6917.678,95.433,540.336,538.751,0.0
54205.0,STARLINK-5249,PAYLOAD,2024-07-29 21:07:52,15.08838108,0.0001202,53.2174,112.5473,88.7338,271.3792,0.00016895,2.402e-05,0.0,0 STARLINK-5249,1 54205U 22141BA  24211.88046899  .00002402  00000-0  16895-3 0  9998,2 54205  53.2174 112.5473 0001202  88.7338 271.3792 15.08838108 97497,6917.886,95.438,540.583,538.92,0.0
54205.0,STARLINK-5249,PAYLOAD,2024-07-29 22:43:15,15.08838561,0.0001224,53.2169,112.2499,78.5939,281.5191,0.00017369,2.477e-05,0.0,0 STARLINK-5249,1 54205U 22141BA  24211.94670914  .00002477  00000-0  17369-3 0  9995,2 54205  53.2169 112.2499 0001224  78.5939 281.5191 15.08838561 97279,6917.885,95.438,540.597,538.903,0.0
54205.0,STARLINK-5249,PAYLOAD,2024-07-30 00:18:38,15.08848708,0.0001236,53.2171,111.9509,87.3986,272.7147,0.00025841,3.828e-05,0.0,0 STARLINK-5249,1 54205U 22141BA  24212.01294116  .00003828  00000-0  25841-3 0  9995,2 54205  53.2171 111.9509 0001236  87.3986 272.7147 15.08848708 97517,6917.854,95.437,540.574,538.864,0.0
54205.0,STARLINK-5249,PAYLOAD,2024-07-30 09:50:57,15.08836936,0.00013,53.2172,110.1672,87.3899,272.7242,0.00013412,1.847e-05,0.0,0 STARLINK-5249,1 54205U 22141BA  24212.41039279  .00001847  00000-0  13412-3 0  9996,2 54205  53.2172 110.1672 0001300  87.3899 272.7242 15.08836936 97577,6917.89,95.438,540.654,538.855,0.0
54205.0,STARLINK-5249,PAYLOAD,2024-07-30 22:34:02,15.08841942,0.0001418,53.2176,107.7901,92.2274,267.8881,0.0001372,1.896e-05,0.0,0 STARLINK-5249,1 54205U 22141BA  24212.94031206  .00001896  00000-0  13720-3 0  9992,2 54205  53.2176 107.7901 0001418  92.2274 267.8881 15.08841942 97421,6917.874,95.437,540.72,538.758,0.0
54205.0,STARLINK-5249,PAYLOAD,2024-07-31 09:41:45,15.08829356,0.0001469,53.2173,105.7091,94.2004,265.9156,0.00034449,5.197e-05,0.0,0 STARLINK-5249,1 54205U 22141BA  24213.40399683  .00005197  00000-0  34449-3 0  9999,2 54205  53.2173 105.7091 0001469  94.2004 265.9156 15.08829356 97491,6917.913,95.438,540.794,538.762,0.0
54205.0,STARLINK-5249,PAYLOAD,2024-07-31 20:49:27,15.08832977,0.0001402,53.2166,103.6252,87.7985,272.3168,-6.1077e-05,-1.26e-05,0.0,0 STARLINK-5249,1 54205U 22141BA  24213.86768252 -.00001260  00000-0 -61077-4 0  9998,2 54205  53.2166 103.6252 0001402  87.7985 272.3168 15.08832977 97792,6917.902,95.438,540.737,538.797,0.0
54205.0,STARLINK-5249,PAYLOAD,2024-07-31 22:24:50,15.08834646,0.0001414,53.2179,103.3284,85.5899,274.5255,-4.8321e-05,-1.057e-05,0.0,0 STARLINK-5249,1 54205U 22141BA  24213.93392157 -.00001057  00000-0 -48321-4 0  9994,2 54205  53.2179 103.3284 0001414  85.5899 274.5255 15.08834646 97573,6917.897,95.438,540.74,538.784,0.0
54205.0,STARLINK-5249,PAYLOAD,2024-08-01 00:00:13,15.08843739,0.0001205,53.2162,103.0258,82.3208,277.7921,-2.2743e-06,-3.24e-06,0.0,0 STARLINK-5249,1 54205U 22141BA  24214.00015356 -.00000324  00000-0 -22743-5 0  9993,2 54205  53.2162 103.0258 0001205  82.3208 277.7921 15.08843739 97815,6917.869,95.437,540.568,538.9,0.0
54205.0,STARLINK-5249,PAYLOAD,2024-08-01 09:32:31,15.08851873,0.0001507,53.2178,101.2462,82.4426,277.6737,-1.0837e-05,-4.61e-06,0.0,0 STARLINK-5249,1 54205U 22141BA  24214.39758901 -.00000461  00000-0 -10837-4 0  9997,2 54205  53.2178 101.2462 0001507  82.4426 277.6737 15.08851873 97640,6917.844,95.437,540.752,538.667,0.0
54205.0,STARLINK-5249,PAYLOAD,2024-08-01 22:15:36,15.08852647,0.0001546,53.2173,98.8673,82.6875,277.4293,0.00017423,2.487e-05,0.0,0 STARLINK-5249,1 54205U 22141BA  24214.92750638  .00002487  00000-0  17423-3 0  9990,2 54205  53.2173  98.8673 0001546  82.6875 277.4293 15.08852647 97727,6917.842,95.437,540.776,538.637,0.0
54205.0,STARLINK-5249,PAYLOAD,2024-08-01 23:50:59,15.08861598,0.000115,53.2154,98.5695,93.944,266.1684,0.00030779,4.617e-05,0.0,0 STARLINK-5249,1 54205U 22141BA  24214.99373971  .00004617  00000-0  30779-3 0  9994,2 54205  53.2154  98.5695 0001150  93.9440 266.1684 15.08861598 97961,6917.814,95.436,540.475,538.884,0.0
54205.0,STARLINK-5249,PAYLOAD,2024-08-02 09:23:18,15.08843534,0.0001329,53.2162,96.7821,81.1544,278.9598,5.9506e-05,6.59e-06,0.0,0 STARLINK-5249,1 54205U 22141BA  24215.39118922  .00000659  00000-0  59506-4 0  9994,2 54205  53.2162  96.7821 0001329  81.1544 278.9598 15.08843534 98026,6917.87,95.437,540.654,538.815,0.0
54205.0,STARLINK-5249,PAYLOAD,2024-08-02 20:31:01,15.08832258,0.0002076,53.2159,94.7026,85.5617,274.5612,6.8351e-05,8e-06,0.0,0 STARLINK-5249,1 54205U 22141BA  24215.85487951  .00000800  00000-0  68351-4 0  9992,2 54205  53.2159  94.7026 0002076  85.5617 274.5612 15.08832258 98093,6917.904,95.438,541.205,538.333,0.0
54205.0,STARLINK-5249,PAYLOAD,2024-08-02 22:06:24,15.0882685,0.0001197,53.2151,94.4066,88.4988,271.6141,6.4166e-07,-2.78e-06,0.0,0 STARLINK-5249,1 54205U 22141BA  24215.92112065 -.00000278  00000-0  64166-6 0  9993,2 54205  53.2151  94.4066 0001197  88.4988 271.6141 15.08826850 97873,6917.921,95.438,540.614,538.958,0.0
54205.0,STARLINK-5249,PAYLOAD,2024-08-03 09:14:06,15.08836878,0.0001359,53.2164,92.3204,89.0927,271.0221,9.1536e-06,-1.42e-06,0.0,0 STARLINK-5249,1 54205U 22141BA  24216.38479727 -.00000142  00000-0  91536-5 0  9995,2 54205  53.2164  92.3204 0001359  89.0927 271.0221 15.08836878 97940,6917.89,95.438,540.695,538.815,0.0
54205.0,STARLINK-5249,PAYLOAD,2024-08-03 20:21:48,15.08843801,0.0001396,53.2154,90.2447,78.2642,281.8507,9.8127e-05,1.274e-05,0.0,0 STARLINK-5249,1 54205U 22141BA  24216.84847548  .00001274  00000-0  98127-4 0  9994,2 54205  53.2154  90.2447 0001396  78.2642 281.8507 15.08843801 98244,6917.869,95.437,540.7,538.768,0.0
54205.0,STARLINK-5249,PAYLOAD,2024-08-03 21:57:11,15.0884779,0.00013,53.2145,89.9443,85.6518,274.4623,0.00018221,2.614e-05,0.0,0 STARLINK-5249,1 54205U 22141BA  24216.91471271  .00002614  00000-0  18221-3 0  9993,2 54205  53.2145  89.9443 0001300  85.6518 274.4623 15.08847790 98028,6917.857,95.437,540.621,538.822,0.0
54205.0,STARLINK-5249,PAYLOAD,2024-08-04 21:47:58,15.08853356,0.0001299,53.214,85.4853,87.2987,272.8154,0.00038192,5.798e-05,0.0,0 STARLINK-5249,1 54205U 22141BA  24217.90831254  .00005798  00000-0  38192-3 0  9999,2 54205  53.2140  85.4853 0001299  87.2987 272.8154 15.08853356 98176,6917.84,95.437,540.603,538.806,0.0
54205.0,STARLINK-5249,PAYLOAD,2024-08-05 21:38:45,15.08844912,0.0001321,53.2144,81.024,87.1608,272.9536,0.00011442,1.534e-05,0.0,0 STARLINK-5249,1 54205U 22141BA  24218.90191330  .00001534  00000-0  11442-3 0  9997,2 54205  53.2144  81.0240 0001321  87.1608 272.9536 15.08844912 98552,6917.865,95.437,540.644,538.817,0.0
54205.0,STARLINK-5249,PAYLOAD,2024-08-06 19:54:09,15.08840598,0.0001397,53.2163,76.8599,82.2123,277.9027,-8.848e-05,-1.696e-05,0.0,0 STARLINK-5249,1 54205U 22141BA  24219.82927543 -.00001696  00000-0 -88480-4 0  9990,2 54205  53.2163  76.8599 0001397  82.2123 277.9027 15.08840598 98694,6917.879,95.438,540.71,538.777,0.0
54205.0,STARLINK-5249,PAYLOAD,2024-08-06 21:29:32,15.08841941,0.0001956,53.2167,76.5612,59.6425,300.476,1.4507e-05,-5.7e-07,0.0,0 STARLINK-5249,1 54205U 22141BA  24219.89551783 -.00000057  00000-0  14507-4 0  9994,2 54205  53.2167  76.5612 0001956  59.6425 300.4760 15.08841941 98470,6917.874,95.437,541.093,538.386,0.0
54205.0,STARLINK-5249,PAYLOAD,2024-08-07 19:44:56,15.08841504,0.0001332,53.2162,72.3969,84.8285,275.2859,0.00011324,1.515e-05,0.0,0 STARLINK-5249,1 54205U 22141BA  24220.82287774  .00001515  00000-0  11324-3 0  9997,2 54205  53.2162  72.3969 0001332  84.8285 275.2859 15.08841504 98615,6917.876,95.437,540.662,538.819,0.0
54205.0,STARLINK-5249,PAYLOAD,2024-08-08 19:35:45,15.08821866,0.0001382,53.2168,67.9416,111.471,248.6429,-9.6208e-05,-1.818e-05,0.0,0 STARLINK-5249,1 54205U 22141BA  24221.81649813 -.00001818  00000-0 -96208-4 0  9996,2 54205  53.2168  67.9416 0001382 111.4710 248.6429 15.08821866 98990,6917.936,95.439,540.757,538.845,0.0
54205.0,STARLINK-5249,PAYLOAD,2024-08-08 22:46:31,15.08823508,0.0001264,53.2165,67.3433,97.4676,262.6459,-6.7226e-05,-1.357e-05,0.0,0 STARLINK-5249,1 54205U 22141BA  24221.94897911 -.00001357  00000-0 -67226-4 0  9990,2 54205  53.2165  67.3433 0001264  97.4676 262.6459 15.08823508 98784,6917.931,95.439,540.67,538.921,0.0
54205.0,STARLINK-5249,PAYLOAD,2024-08-09 00:21:54,15.08824422,0.0001207,53.2162,67.0468,100.7332,259.3796,-8.0502e-05,-1.568e-05,0.0,0 STARLINK-5249,1 54205U 22141BA  24222.01521876 -.00001568  00000-0 -80502-4 0  9999,2 54205  53.2162  67.0468 0001207 100.7332 259.3796 15.08824422 98794,6917.928,95.439,540.628,538.958,0.0
54205.0,STARLINK-5249,PAYLOAD,2024-08-09 19:26:31,15.08859049,0.0001312,53.216,63.4778,81.5176,278.5965,0.00040356,6.144e-05,0.0,0 STARLINK-5249,1 54205U 22141BA  24222.81008250  .00006144  00000-0  40356-3 0  9998,2 54205  53.2160  63.4778 0001312  81.5176 278.5965 15.08859049 99149,6917.822,95.436,540.595,538.78,0.0
